CTC1_L_00270001-01
1 39269U 26148TO  26037.47804398  .00000000  00000+0  00000-0 0  9990
2 39269  50.0000   0.0000 0000000   0.0000   0.0000 15.28598690    10
CTC1_L_00270001-02
1 39270U 23294KT  26037.47804398  .00000000  00000+0  00000-0 0  9991
2 39270  50.0000   0.0000 0000000   0.0000  90.0000 15.28598690    11
CTC1_L_00270001-03
1 39271U 25152RJ  26037.47804398  .00000000  00000+0  00000-0 0  9997
2 39271  50.0000   0.0000 0000000   0.0000 180.0000 15.28598690    12
CTC1_L_00270001-04
1 39272U 25818SB  26037.47804398  .00000000  00000+0  00000-0 0  9997
2 39272  50.0000   0.0000 0000000   0.0000 270.0000 15.28598690    13
CTC1_L_00270002-01
1 39273U 26241YS  26037.47804398  .00000000  00000+0  00000-0 0  9999
2 39273  50.0000  12.0000 0000000   0.0000  12.0000 15.28598690    11
CTC1_L_00270002-02
1 39274U 26606AJ  26037.47804398  .00000000  00000+0  00000-0 0  9995
2 39274  50.0000  12.0000 0000000   0.0000 102.0000 15.28598690    12
CTC1_L_00270002-03
1 39275U 23956LX  26037.47804398  .00000000  00000+0  00000-0 0  9991
2 39275  50.0000  12.0000 0000000   0.0000 192.0000 15.28598690    12
CTC1_L_00270002-04
1 39276U 25138CC  26037.47804398  .00000000  00000+0  00000-0 0  9996
2 39276  50.0000  12.0000 0000000   0.0000 282.0000 15.28598690    13
CTC1_L_00270003-01
1 39277U 24431ID  26037.47804398  .00000000  00000+0  00000-0 0  9992
2 39277  50.0000  24.0000 0000000   0.0000  24.0000 15.28598690    11
CTC1_L_00270003-02
1 39278U 25388XG  26037.47804398  .00000000  00000+0  00000-0 0  9995
2 39278  50.0000  24.0000 0000000   0.0000 114.0000 15.28598690    12
CTC1_L_00270003-03
1 39279U 22272KC  26037.47804398  .00000000  00000+0  00000-0 0  9995
2 39279  50.0000  24.0000 0000000   0.0000 204.0000 15.28598690    13
CTC1_L_00270003-04
1 39280U 24508AF  26037.47804398  .00000000  00000+0  00000-0 0  9991
2 39280  50.0000  24.0000 0000000   0.0000 294.0000 15.28598690    14
CTC1_L_00270004-01
1 39281U 22672II  26037.47804398  .00000000  00000+0  00000-0 0  9992
2 39281  50.0000  36.0000 0000000   0.0000  36.0000 15.28598690    12
CTC1_L_00270004-02
1 39282U 22789EB  26037.47804398  .00000000  00000+0  00000-0 0  9992
2 39282  50.0000  36.0000 0000000   0.0000 126.0000 15.28598690    13
CTC1_L_00270004-03
1 39283U 22610AE  26037.47804398  .00000000  00000+0  00000-0 0  9996
2 39283  50.0000  36.0000 0000000   0.0000 216.0000 15.28598690    14
CTC1_L_00270004-04
1 39284U 25952SK  26037.47804398  .00000000  00000+0  00000-0 0  9999
2 39284  50.0000  36.0000 0000000   0.0000 306.0000 15.28598690    15
CTC1_L_00270005-01
1 39285U 23046HF  26037.47804398  .00000000  00000+0  00000-0 0  9992
2 39285  50.0000  48.0000 0000000   0.0000  48.0000 15.28598690    12
CTC1_L_00270005-02
1 39286U 23339CZ  26037.47804398  .00000000  00000+0  00000-0 0  9998
2 39286  50.0000  48.0000 0000000   0.0000 138.0000 15.28598690    13
CTC1_L_00270005-03
1 39287U 26709LA  26037.47804398  .00000000  00000+0  00000-0 0  9993
2 39287  50.0000  48.0000 0000000   0.0000 228.0000 15.28598690    14
CTC1_L_00270005-04
1 39288U 25487XF  26037.47804398  .00000000  00000+0  00000-0 0  9996
2 39288  50.0000  48.0000 0000000   0.0000 318.0000 15.28598690    15
CTC1_L_00270006-01
1 39289U 22932CV  26037.47804398  .00000000  00000+0  00000-0 0  9999
2 39289  50.0000  60.0000 0000000   0.0000  60.0000 15.28598690    14
CTC1_L_00270006-02
1 39290U 25411FD  26037.47804398  .00000000  00000+0  00000-0 0  9996
2 39290  50.0000  60.0000 0000000   0.0000 150.0000 15.28598690    16
CTC1_L_00270006-03
1 39291U 22503QA  26037.47804398  .00000000  00000+0  00000-0 0  9996
2 39291  50.0000  60.0000 0000000   0.0000 240.0000 15.28598690    17
CTC1_L_00270006-04
1 39292U 25304JS  26037.47804398  .00000000  00000+0  00000-0 0  9999
2 39292  50.0000  60.0000 0000000   0.0000 330.0000 15.28598690    18
CTC1_L_00270007-01
1 39293U 23715QF  26037.47804398  .00000000  00000+0  00000-0 0  9994
2 39293  50.0000  72.0000 0000000   0.0000  72.0000 15.28598690    15
CTC1_L_00270007-02
1 39294U 26609GT  26037.47804398  .00000000  00000+0  00000-0 0  9990
2 39294  50.0000  72.0000 0000000   0.0000 162.0000 15.28598690    16
CTC1_L_00270007-03
1 39295U 26221DJ  26037.47804398  .00000000  00000+0  00000-0 0  9991
2 39295  50.0000  72.0000 0000000   0.0000 252.0000 15.28598690    17
CTC1_L_00270007-04
1 39296U 22595XP  26037.47804398  .00000000  00000+0  00000-0 0  9992
2 39296  50.0000  72.0000 0000000   0.0000 342.0000 15.28598690    18
CTC1_L_00270008-01
1 39297U 26272EW  26037.47804398  .00000000  00000+0  00000-0 0  9999
2 39297  50.0000  84.0000 0000000   0.0000  84.0000 15.28598690    15
CTC1_L_00270008-02
1 39298U 23630QK  26037.47804398  .00000000  00000+0  00000-0 0  9995
2 39298  50.0000  84.0000 0000000   0.0000 174.0000 15.28598690    16
CTC1_L_00270008-03
1 39299U 22123RM  26037.47804398  .00000000  00000+0  00000-0 0  9992
2 39299  50.0000  84.0000 0000000   0.0000 264.0000 15.28598690    17
CTC1_L_00270008-04
1 39300U 25584RM  26037.47804398  .00000000  00000+0  00000-0 0  9999
2 39300  50.0000  84.0000 0000000   0.0000 354.0000 15.28598690    10
CTC1_L_00270009-01
1 39301U 23399D   26037.47804398  .00000000  00000+0  00000-0 0  9992
2 39301  50.0000  96.0000 0000000   0.0000  96.0000 15.28598690    17
CTC1_L_00270009-02
1 39302U 23478WG  26037.47804398  .00000000  00000+0  00000-0 0  9991
2 39302  50.0000  96.0000 0000000   0.0000 186.0000 15.28598690    18
CTC1_L_00270009-03
1 39303U 26396NW  26037.47804398  .00000000  00000+0  00000-0 0  9994
2 39303  50.0000  96.0000 0000000   0.0000 276.0000 15.28598690    19
CTC1_L_00270009-04
1 39304U 25573FD  26037.47804398  .00000000  00000+0  00000-0 0  9991
2 39304  50.0000  96.0000 0000000   0.0000   6.0000 15.28598690    11
CTC1_L_00270010-01
1 39305U 26504DN  26037.47804398  .00000000  00000+0  00000-0 0  9997
2 39305  50.0000 108.0000 0000000   0.0000 108.0000 15.28598690    19
CTC1_L_00270010-02
1 39306U 23326TG  26037.47804398  .00000000  00000+0  00000-0 0  9997
2 39306  50.0000 108.0000 0000000   0.0000 198.0000 15.28598690    19
CTC1_L_00270010-03
1 39307U 26943OE  26037.47804398  .00000000  00000+0  00000-0 0  9996
2 39307  50.0000 108.0000 0000000   0.0000 288.0000 15.28598690    10
CTC1_L_00270010-04
1 39308U 24319AP  26037.47804398  .00000000  00000+0  00000-0 0  9992
2 39308  50.0000 108.0000 0000000   0.0000  18.0000 15.28598690    12
CTC1_L_00270011-01
1 39309U 23489XE  26037.47804398  .00000000  00000+0  00000-0 0  9990
2 39309  50.0000 120.0000 0000000   0.0000 120.0000 15.28598690    11
CTC1_L_00270011-02
1 39310U 26635SV  26037.47804398  .00000000  00000+0  00000-0 0  9998
2 39310  50.0000 120.0000 0000000   0.0000 210.0000 15.28598690    13
CTC1_L_00270011-03
1 39311U 25871RF  26037.47804398  .00000000  00000+0  00000-0 0  9990
2 39311  50.0000 120.0000 0000000   0.0000 300.0000 15.28598690    14
CTC1_L_00270011-04
1 39312U 25573CX  26037.47804398  .00000000  00000+0  00000-0 0  9990
2 39312  50.0000 120.0000 0000000   0.0000  30.0000 15.28598690    15
CTC1_L_00270012-01
1 39313U 25756IR  26037.47804398  .00000000  00000+0  00000-0 0  9994
2 39313  50.0000 132.0000 0000000   0.0000 132.0000 15.28598690    12
CTC1_L_00270012-02
1 39314U 22624CG  26037.47804398  .00000000  00000+0  00000-0 0  9996
2 39314  50.0000 132.0000 0000000   0.0000 222.0000 15.28598690    13
CTC1_L_00270012-03
1 39315U 22243PE  26037.47804398  .00000000  00000+0  00000-0 0  9994
2 39315  50.0000 132.0000 0000000   0.0000 312.0000 15.28598690    14
CTC1_L_00270012-04
1 39316U 22107TM  26037.47804398  .00000000  00000+0  00000-0 0  9994
2 39316  50.0000 132.0000 0000000   0.0000  42.0000 15.28598690    15
CTC1_L_00270013-01
1 39317U 25671ML  26037.47804398  .00000000  00000+0  00000-0 0  9994
2 39317  50.0000 144.0000 0000000   0.0000 144.0000 15.28598690    12
CTC1_L_00270013-02
1 39318U 24664PF  26037.47804398  .00000000  00000+0  00000-0 0  9996
2 39318  50.0000 144.0000 0000000   0.0000 234.0000 15.28598690    13
CTC1_L_00270013-03
1 39319U 22835GX  26037.47804398  .00000000  00000+0  00000-0 0  9995
2 39319  50.0000 144.0000 0000000   0.0000 324.0000 15.28598690    14
CTC1_L_00270013-04
1 39320U 23065ZA  26037.47804398  .00000000  00000+0  00000-0 0  9993
2 39320  50.0000 144.0000 0000000   0.0000  54.0000 15.28598690    16
CTC1_L_00270014-01
1 39321U 22624WH  26037.47804398  .00000000  00000+0  00000-0 0  9994
2 39321  50.0000 156.0000 0000000   0.0000 156.0000 15.28598690    13
CTC1_L_00270014-02
1 39322U 24794NY  26037.47804398  .00000000  00000+0  00000-0 0  9995
2 39322  50.0000 156.0000 0000000   0.0000 246.0000 15.28598690    14
CTC1_L_00270014-03
1 39323U 22400HN  26037.47804398  .00000000  00000+0  00000-0 0  9998
2 39323  50.0000 156.0000 0000000   0.0000 336.0000 15.28598690    15
CTC1_L_00270014-04
1 39324U 22592SW  26037.47804398  .00000000  00000+0  00000-0 0  9991
2 39324  50.0000 156.0000 0000000   0.0000  66.0000 15.28598690    16
CTC1_L_00270015-01
1 39325U 22824SC  26037.47804398  .00000000  00000+0  00000-0 0  9990
2 39325  50.0000 168.0000 0000000   0.0000 168.0000 15.28598690    13
CTC1_L_00270015-02
1 39326U 25667TK  26037.47804398  .00000000  00000+0  00000-0 0  9999
2 39326  50.0000 168.0000 0000000   0.0000 258.0000 15.28598690    14
CTC1_L_00270015-03
1 39327U 25734KI  26037.47804398  .00000000  00000+0  00000-0 0  9995
2 39327  50.0000 168.0000 0000000   0.0000 348.0000 15.28598690    15
CTC1_L_00270015-04
1 39328U 25419RB  26037.47804398  .00000000  00000+0  00000-0 0  9996
2 39328  50.0000 168.0000 0000000   0.0000  78.0000 15.28598690    16
CTC1_L_00270016-01
1 39329U 26043IW  26037.47804398  .00000000  00000+0  00000-0 0  9991
2 39329  50.0000 180.0000 0000000   0.0000 180.0000 15.28598690    15
CTC1_L_00270016-02
1 39330U 25270VN  26037.47804398  .00000000  00000+0  00000-0 0  9994
2 39330  50.0000 180.0000 0000000   0.0000 270.0000 15.28598690    17
